#aV2009  6 18  0  0   .00000000      96 DD+AD WGS84 FIT  NGA
## 1536 345600.00000000   900.00000000 55000  .0000000000000
+   31     1  2  3  4  6  7  8  9 10 11 12 13 14 15 16 17 18
+         19 20 21 22 23 24 25 26 27 28 29 30 31 32  0  0  0
+          0  0  0  0  0  0  0  0  0  0  0  0  0  0  0  0  0
+          0  0  0  0  0  0  0  0  0  0  0  0  0  0  0  0  0
+          0  0  0  0  0  0  0  0  0  0  0  0  0  0  0  0  0
++         0  0  0  0  0  0  0  0  0  0  0  0  0  0  0  0  0
++         0  0  0  0  0  0  0  0  0  0  0  0  0  0  0  0  0
++         0  0  0  0  0  0  0  0  0  0  0  0  0  0  0  0  0
++         0  0  0  0  0  0  0  0  0  0  0  0  0  0  0  0  0
++         0  0  0  0  0  0  0  0  0  0  0  0  0  0  0  0  0
%c cc cc ccc ccc cccc cccc cccc cccc ccccc ccccc ccccc ccccc
%c cc cc ccc ccc cccc cccc cccc cccc ccccc ccccc ccccc ccccc
%f  0.0000000  0.000000000  0.00000000000  0.000000000000000
%f  0.0000000  0.000000000  0.00000000000  0.000000000000000
%i    0    0    0    0      0      0      0      0         0
%i    0    0    0    0      0      0      0      0         0
/*      NGA, ST. LOUIS,MO.                                  
/*   EPHEMERIS COMPUTED FROM  3 DAYS OF DATA                
/* CCCCCCCCCCCCCCCCCCCCCCCCCCCCCCCCCCCCCCCCCCCCCCCCCCCCCCCCC
/* CCCCCCCCCCCCCCCCCCCCCCCCCCCCCCCCCCCCCCCCCCCCCCCCCCCCCCCCC
*  2009  6 18 15 30   .00000000                                                 
P  1  19930.758438 -17464.667511    368.922134    -75.852096                    
V  1   1499.359249   2543.881639  31829.882994       .053391                    
P  2  13152.977337  20113.943319 -11841.456718    156.778185                    
V  2    624.645509  14996.085458  25944.791768       .011838                    
P  3 -23868.481929 -10246.084814  -6690.845236    408.350215                    
V  3   8585.247040  -1608.624649 -29190.649669       .051575                    
P  4   6174.599354  25587.515430  -1557.043389   -138.207994                    
V  4  -3345.628038   2538.307207  31448.648792      -.159742                    
P  6 -20714.966151 -13406.706460  -9722.962231    165.210030                    
V  6  13061.004251    329.773647 -27664.912092       .129244                    
P  7  -8470.783207  18265.877832 -17280.032952     16.827139                    
V  7  -5943.485879 -21172.657765 -19614.758291      -.006610                    
P  8   -879.074531  25444.877338  -6616.360967   -208.198143                    
V  8  -3364.550827  -8044.596262 -31208.360656      -.017104                    
P  9  14812.599412   -164.763912  21394.956532     61.863362                    
V  9   6305.814172  28002.551138  -3944.215211       .020034                    
P 10  15207.511439   6503.235266 -21009.173660    -17.692023                    
V 10 -19697.427092  17351.798894  -8627.149178      -.005939                    
P 11 -16528.693188   3391.749921  20336.141490     -6.999717                    
V 11 -10210.497136 -24563.270666  -3802.557728      -.016029                    
P 12  22281.964885  -9731.312427  10604.905274   -264.428802                    
V 12  -8548.856399  10586.309281  27971.474220       .058810                    
P 13 -13711.101061   9154.995820 -20956.854693    299.677370                    
V 13 -24103.823892 -10333.239235  11321.310828       .007806                    
P 14  -4293.030298 -16242.256914  20722.097738    -92.933753                    
V 14  24465.950060   8630.126589  11784.652192       .057940                    
P 15  25631.073778   6857.515667   1832.123521   -301.952177                    
V 15   1301.290732   3468.746733 -31497.419078      -.030875                    
P 16 -10603.620495 -10678.627884 -21833.395216     40.829119                    
V 16  21278.475335 -17936.765145  -1319.307106      -.034664                    
P 17   3028.598725  16493.208493  20711.555200     65.200529                    
V 17 -24849.120508  -8009.724299   9858.087078       .022377                    
P 18  15299.349924 -20089.999467   7802.555286    -47.165826                    
V 18   9683.549653  -3577.699825 -29427.729814       .032092                    
P 19 -25317.307834  -7264.028601   4432.174165     22.074617                    
V 19  -4050.859260  -4586.369704 -30843.261203      -.012617                    
P 20 -22077.519751  11670.403072   8862.902110     79.596312                    
V 20   6260.885556 -10120.071763  28552.610139      -.010055                    
P 21   7094.650861 -20624.313754 -14443.255232      7.655906                    
V 21   6567.764331  18247.053653 -23050.619657      -.021466                    
P 22   5654.503082 -20177.973908  16432.267214    197.237640                    
V 22  17392.140674 -11383.128339 -20233.402833      -.008287                    
P 23 -23227.132949   1523.730891 -13104.171215    390.217478                    
V 23 -14956.438019  -7044.289916  25502.180194       .000018                    
P 24  13762.185579  -8767.395712 -20868.528078    197.796654                    
V 24   4627.511946  26395.726619  -7735.288686       .030385                    
P 25 -11196.681282  11890.891833 -20644.697916    468.347126                    
V 25  -8482.279513 -25566.610692  -9773.808861       .176992                    
P 26  20207.607059  -3594.690933  16611.798872     63.853684                    
V 26  19917.230377   9088.243227 -21060.083474       .006368                    
P 27  16217.607153   6778.322544  20594.650323     58.547199                    
V 27   5459.722577  24001.238746 -12638.214454       .030488                    
P 28  -7923.361155  20323.247569  15362.828849    -25.529754                    
V 28 -15767.867681  10522.691921 -23002.422702      -.001980                    
P 29  15673.731259  -8776.949923 -19443.168827     31.360622                    
V 29  22970.336207   9794.448856  14059.136630       .036072                    
P 30  19372.652012 -18078.329476    531.748057    154.612494                    
V 30   1386.154610   3059.165819  31617.398177       .027711                    
P 31  -7293.034096 -25240.255715  -3131.299088    -62.512575                    
V 31   1650.128542  -4658.882815  31790.312266      -.007036                    
P 32 -21353.780445   2098.947701  15876.218626    245.253795                    
V 32  14559.917299 -13180.824185  22123.067682      -.056901                    
EOF
